[{"OBJECT_NAME":"YAOGAN-35 01C","OBJECT_ID":"2021-101D","EPOCH":"2026-03-09T23:21:58.673664","MEAN_MOTION":15.23336833,"ECCENTRICITY":0.00093494,"INCLINATION":35.0028,"RA_OF_ASC_NODE":168.8735,"ARG_OF_PERICENTER":247.0598,"MEAN_ANOMALY":112.9131,"EPHEMERIS_TYPE":0,"CLASSIFICATION_TYPE":"U","NORAD_CAT_ID":49393,"ELEMENT_SET_NO":999,"REV_AT_EPOCH":24187,"BSTAR":0.0007564285,"MEAN_MOTION_DOT":0.00018436,"MEAN_MOTION_DDOT":0},{"OBJECT_NAME":"OBJECT AJ","OBJECT_ID":"2023-085AJ","EPOCH":"2026-03-09T21:40:57.336960","MEAN_MOTION":15.22482723,"ECCENTRICITY":0.0009664,"INCLINATION":97.4789,"RA_OF_ASC_NODE":174.9935,"ARG_OF_PERICENTER":71.8929,"MEAN_ANOMALY":288.3359,"EPHEMERIS_TYPE":0,"CLASSIFICATION_TYPE":"U","NORAD_CAT_ID":57036,"ELEMENT_SET_NO":999,"REV_AT_EPOCH":15122,"BSTAR":0.00051608664,"MEAN_MOTION_DOT":0.00011905,"MEAN_MOTION_DDOT":0}]
